start=new Date('2022-07-29T00:00:00.000Z').valueOf();
sats=[{"ARG_OF_PERICENTER":"134.1248","MEAN_ANOMALY":"225.9843","CENTER_NAME":"EARTH","TLE_LINE1":"1 44742U 19074AF  22209.66527903  .00013886  00000-0  70022-3 0  9995","MEAN_ELEMENT_THEORY":"SGP4","RCS_SIZE":"LARGE","CLASSIFICATION_TYPE":"U","FILE":"3524113","TLE_LINE2":"2 44742  52.9944 353.3635 0001190 134.1248 225.9843 15.17415399149730","REF_FRAME":"TEME","MEAN_MOTION_DOT":"0.00013886","SEMIMAJOR_AXIS":"6891.792","OBJECT_TYPE":"PAYLOAD","LAUNCH_DATE":"2019-11-11","INCLINATION":"52.9944","TIME_SYSTEM":"UTC","DECAY_DATE":null,"ECCENTRICITY":"0.00011900","COUNTRY_CODE":"US","EPHEMERIS_TYPE":"0","PERIOD":"94.898","MEAN_MOTION":"15.17415399","PERIAPSIS":"512.837","RA_OF_ASC_NODE":"353.3635","ELEMENT_SET_NO":"999","NORAD_CAT_ID":"44742","GP_ID":"209062944","REV_AT_EPOCH":"14973","MEAN_MOTION_DDOT":"0.0000000000000","SITE":"AFETR","EPOCH":"2022-07-28T15:58:00.108192","BSTAR":"0.00070022000000","OBJECT_NAME":"STARLINK-1037","OBJECT_ID":"2019-074AF","APOAPSIS":"514.477"},{"DECAY_DATE":null,"TIME_SYSTEM":"UTC","COUNTRY_CODE":"US","ECCENTRICITY":"0.00014790","INCLINATION":"53.0575","SEMIMAJOR_AXIS":"6925.367","OBJECT_TYPE":"PAYLOAD","LAUNCH_DATE":"2019-11-11","MEAN_MOTION_DOT":"-0.00000303","TLE_LINE2":"2 44743  53.0575  32.1754 0001479  94.5260 265.5898 15.06394066149331","REF_FRAME":"TEME","CLASSIFICATION_TYPE":"U","FILE":"3524113","RCS_SIZE":"LARGE","MEAN_ELEMENT_THEORY":"SGP4","TLE_LINE1":"1 44743U 19074AG  22209.72585750 -.00000303  00000-0 -14425-5 0  9996","CENTER_NAME":"EARTH","ARG_OF_PERICENTER":"94.5260","MEAN_ANOMALY":"265.5898","OBJECT_ID":"2019-074AG","OBJECT_NAME":"STARLINK-1038","APOAPSIS":"548.256","BSTAR":"-0.00000144250000","EPOCH":"2022-07-28T17:25:14.088000","SITE":"AFETR","MEAN_MOTION_DDOT":"0.0000000000000","REV_AT_EPOCH":"14933","NORAD_CAT_ID":"44743","GP_ID":"209063195","ELEMENT_SET_NO":"999","RA_OF_ASC_NODE":"32.1754","PERIAPSIS":"546.207","MEAN_MOTION":"15.06394066","EPHEMERIS_TYPE":"0","PERIOD":"95.593"},{"INCLINATION":"53.0569","TIME_SYSTEM":"UTC","DECAY_DATE":null,"ECCENTRICITY":"0.00013010","COUNTRY_CODE":"US","MEAN_MOTION_DOT":"0.00000388","SEMIMAJOR_AXIS":"6925.342","OBJECT_TYPE":"PAYLOAD","LAUNCH_DATE":"2019-11-11","FILE":"3524113","CLASSIFICATION_TYPE":"U","TLE_LINE2":"2 44744  53.0569  32.1209 0001301  88.6844 271.4294 15.06402106149247","REF_FRAME":"TEME","MEAN_ELEMENT_THEORY":"SGP4","TLE_LINE1":"1 44744U 19074AH  22209.73691351  .00000388  00000-0  44941-4 0  9999","RCS_SIZE":"LARGE","ARG_OF_PERICENTER":"88.6844","MEAN_ANOMALY":"271.4294","CENTER_NAME":"EARTH","OBJECT_ID":"2019-074AH","OBJECT_NAME":"STARLINK-1039","APOAPSIS":"548.108","BSTAR":"0.00004494100000","SITE":"AFETR","EPOCH":"2022-07-28T17:41:09.327264","REV_AT_EPOCH":"14924","MEAN_MOTION_DDOT":"0.0000000000000","GP_ID":"209064445","NORAD_CAT_ID":"44744","ELEMENT_SET_NO":"999","MEAN_MOTION":"15.06402106","PERIAPSIS":"546.306","RA_OF_ASC_NODE":"32.1209","EPHEMERIS_TYPE":"0","PERIOD":"95.592"},{"EPOCH":"2022-07-28T17:19:54.901344","SITE":"AFETR","MEAN_MOTION_DDOT":"0.0000000000000","REV_AT_EPOCH":"14924","APOAPSIS":"548.178","OBJECT_ID":"2019-074AK","OBJECT_NAME":"STARLINK-1041","BSTAR":"0.00008119200000","RA_OF_ASC_NODE":"32.1936","PERIAPSIS":"546.200","MEAN_MOTION":"15.06407992","PERIOD":"95.592","EPHEMERIS_TYPE":"0","NORAD_CAT_ID":"44746","GP_ID":"209064693","ELEMENT_SET_NO":"999","LAUNCH_DATE":"2019-11-11","OBJECT_TYPE":"PAYLOAD","SEMIMAJOR_AXIS":"6925.324","MEAN_MOTION_DOT":"0.00000928","REF_FRAME":"TEME","TLE_LINE2":"2 44746  53.0560  32.1936 0001428  73.8086 286.3060 15.06407992149245","FILE":"3524113","CLASSIFICATION_TYPE":"U","COUNTRY_CODE":"US","ECCENTRICITY":"0.00014280","TIME_SYSTEM":"UTC","DECAY_DATE":null,"INCLINATION":"53.0560","CENTER_NAME":"EARTH","MEAN_ANOMALY":"286.3060","ARG_OF_PERICENTER":"73.8086","RCS_SIZE":"LARGE","TLE_LINE1":"1 44746U 19074AK  22209.72216321  .00000928  00000-0  81192-4 0  9999","MEAN_ELEMENT_THEORY":"SGP4"},{"NORAD_CAT_ID":"44747","GP_ID":"209063445","ELEMENT_SET_NO":"999","RA_OF_ASC_NODE":"32.0678","MEAN_MOTION":"15.06393606","PERIAPSIS":"546.153","EPHEMERIS_TYPE":"0","PERIOD":"95.593","OBJECT_NAME":"STARLINK-1042","OBJECT_ID":"2019-074AL","APOAPSIS":"548.314","BSTAR":"0.00000055667000","EPOCH":"2022-07-28T18:02:23.806752","SITE":"AFETR","MEAN_MOTION_DDOT":"0.0000000000000","REV_AT_EPOCH":"14925","RCS_SIZE":"LARGE","MEAN_ELEMENT_THEORY":"SGP4","TLE_LINE1":"1 44747U 19074AL  22209.75166443 -.00000273  00000-0  55667-6 0  9996","CENTER_NAME":"EARTH","ARG_OF_PERICENTER":"85.6139","MEAN_ANOMALY":"274.5028","TIME_SYSTEM":"UTC","DECAY_DATE":null,"ECCENTRICITY":"0.00015600","COUNTRY_CODE":"US","INCLINATION":"53.0562","SEMIMAJOR_AXIS":"6925.368","OBJECT_TYPE":"PAYLOAD","LAUNCH_DATE":"2019-11-11","MEAN_MOTION_DOT":"-0.00000273","TLE_LINE2":"2 44747  53.0562  32.0678 0001560  85.6139 274.5028 15.06393606149257","REF_FRAME":"TEME","FILE":"3524113","CLASSIFICATION_TYPE":"U"},{"MEAN_ELEMENT_THEORY":"SGP4","TLE_LINE1":"1 44748U 19074AM  22209.78113805  .00001106  00000-0  93097-4 0  9996","RCS_SIZE":"LARGE","ARG_OF_PERICENTER":"87.0229","MEAN_ANOMALY":"273.0944","CENTER_NAME":"EARTH","INCLINATION":"53.0567","DECAY_DATE":null,"TIME_SYSTEM":"UTC","COUNTRY_CODE":"US","ECCENTRICITY":"0.00016070","CLASSIFICATION_TYPE":"U","FILE":"3524113","TLE_LINE2":"2 44748  53.0567  31.9197 0001607  87.0229 273.0944 15.06407829149259","REF_FRAME":"TEME","MEAN_MOTION_DOT":"0.00001106","SEMIMAJOR_AXIS":"6925.325","LAUNCH_DATE":"2019-11-11","OBJECT_TYPE":"PAYLOAD","ELEMENT_SET_NO":"999","GP_ID":"209063695","NORAD_CAT_ID":"44748","EPHEMERIS_TYPE":"0","PERIOD":"95.592","PERIAPSIS":"546.077","MEAN_MOTION":"15.06407829","RA_OF_ASC_NODE":"31.9197","BSTAR":"0.00009309700000","OBJECT_ID":"2019-074AM","OBJECT_NAME":"STARLINK-1043","APOAPSIS":"548.302","REV_AT_EPOCH":"14925","MEAN_MOTION_DDOT":"0.0000000000000","SITE":"AFETR","EPOCH":"2022-07-28T18:44:50.327520"},{"NORAD_CAT_ID":"44751","GP_ID":"209063946","ELEMENT_SET_NO":"999","PERIAPSIS":"546.285","MEAN_MOTION":"15.06389855","RA_OF_ASC_NODE":"32.1592","PERIOD":"95.593","EPHEMERIS_TYPE":"0","APOAPSIS":"548.205","OBJECT_NAME":"STARLINK-1046","OBJECT_ID":"2019-074AQ","BSTAR":"0.00001422600000","SITE":"AFETR","EPOCH":"2022-07-28T17:30:32.837472","REV_AT_EPOCH":"14924","MEAN_MOTION_DDOT":"0.0000000000000","MEAN_ELEMENT_THEORY":"SGP4","TLE_LINE1":"1 44751U 19074AQ  22209.72954673 -.00000070  00000-0  14226-4 0  9997","RCS_SIZE":"LARGE","MEAN_ANOMALY":"280.5151","ARG_OF_PERICENTER":"79.5994","CENTER_NAME":"EARTH","INCLINATION":"53.0567","ECCENTRICITY":"0.00013860","COUNTRY_CODE":"US","TIME_SYSTEM":"UTC","DECAY_DATE":null,"MEAN_MOTION_DOT":"-0.00000070","LAUNCH_DATE":"2019-11-11","OBJECT_TYPE":"PAYLOAD","SEMIMAJOR_AXIS":"6925.380","CLASSIFICATION_TYPE":"U","FILE":"3524113","REF_FRAME":"TEME","TLE_LINE2":"2 44751  53.0567  32.1592 0001386  79.5994 280.5151 15.06389855149244"},{"REF_FRAME":"TEME","TLE_LINE2":"2 44752  53.0570  12.0687 0001456  73.3581 286.7568 15.06389753149521","FILE":"3524113","CLASSIFICATION_TYPE":"U","LAUNCH_DATE":"2019-11-11","OBJECT_TYPE":"PAYLOAD","SEMIMAJOR_AXIS":"6925.380","MEAN_MOTION_DOT":"0.00000237","ECCENTRICITY":"0.00014560","COUNTRY_CODE":"US","TIME_SYSTEM":"UTC","DECAY_DATE":null,"INCLINATION":"53.0570","CENTER_NAME":"EARTH","MEAN_ANOMALY":"286.7568","ARG_OF_PERICENTER":"73.3581","RCS_SIZE":"LARGE","TLE_LINE1":"1 44752U 19074AR  22209.74982309  .00000237  00000-0  34824-4 0  9997","MEAN_ELEMENT_THEORY":"SGP4","MEAN_MOTION_DDOT":"0.0000000000000","REV_AT_EPOCH":"14952","EPOCH":"2022-07-28T17:59:44.714976","SITE":"AFETR","BSTAR":"0.00003482400000","APOAPSIS":"548.253","OBJECT_NAME":"STARLINK-1047","OBJECT_ID":"2019-074AR","PERIOD":"95.593","EPHEMERIS_TYPE":"0","RA_OF_ASC_NODE":"12.0687","PERIAPSIS":"546.237","MEAN_MOTION":"15.06389753","ELEMENT_SET_NO":"999","NORAD_CAT_ID":"44752","GP_ID":"209064194"},{"SITE":"AFETR","EPOCH":"2022-07-28T14:56:37.078368","REV_AT_EPOCH":"14978","MEAN_MOTION_DDOT":"0.0000000000000","APOAPSIS":"548.134","OBJECT_ID":"2019-074AS","OBJECT_NAME":"STARLINK-1048","BSTAR":"0.00007676700000","PERIAPSIS":"546.276","MEAN_MOTION":"15.06402783","RA_OF_ASC_NODE":"352.6385","PERIOD":"95.592","EPHEMERIS_TYPE":"0","GP_ID":"209062945","NORAD_CAT_ID":"44753","ELEMENT_SET_NO":"999","MEAN_MOTION_DOT":"0.00000862","LAUNCH_DATE":"2019-11-11","OBJECT_TYPE":"PAYLOAD","SEMIMAJOR_AXIS":"6925.340","CLASSIFICATION_TYPE":"U","FILE":"3524113","REF_FRAME":"TEME","TLE_LINE2":"2 44753  53.0556 352.6385 0001341  94.4250 265.6892 15.06402783149787","INCLINATION":"53.0556","ECCENTRICITY":"0.00013410","COUNTRY_CODE":"US","TIME_SYSTEM":"UTC","DECAY_DATE":null,"MEAN_ANOMALY":"265.6892","ARG_OF_PERICENTER":"94.4250","CENTER_NAME":"EARTH","TLE_LINE1":"1 44753U 19074AS  22209.62265137  .00000862  00000-0  76767-4 0  9994","MEAN_ELEMENT_THEORY":"SGP4","RCS_SIZE":"LARGE"},{"ARG_OF_PERICENTER":"80.3661","MEAN_ANOMALY":"279.7483","CENTER_NAME":"EARTH","TLE_LINE1":"1 44754U 19074AT  22209.82537955  .00001126  00000-0  94454-4 0  9994","MEAN_ELEMENT_THEORY":"SGP4","RCS_SIZE":"LARGE","CLASSIFICATION_TYPE":"U","FILE":"3524113","TLE_LINE2":"2 44754  53.0561 351.7292 0001371  80.3661 279.7483 15.06394270149811","REF_FRAME":"TEME","MEAN_MOTION_DOT":"0.00001126","SEMIMAJOR_AXIS":"6925.366","OBJECT_TYPE":"PAYLOAD","LAUNCH_DATE":"2019-11-11","INCLINATION":"53.0561","DECAY_DATE":null,"TIME_SYSTEM":"UTC","ECCENTRICITY":"0.00013710","COUNTRY_CODE":"US","EPHEMERIS_TYPE":"0","PERIOD":"95.593","PERIAPSIS":"546.282","MEAN_MOTION":"15.06394270","RA_OF_ASC_NODE":"351.7292","ELEMENT_SET_NO":"999","GP_ID":"209063196","NORAD_CAT_ID":"44754","REV_AT_EPOCH":"14981","MEAN_MOTION_DDOT":"0.0000000000000","SITE":"AFETR","EPOCH":"2022-07-28T19:48:32.793120","BSTAR":"0.00009445400000","OBJECT_ID":"2019-074AT","OBJECT_NAME":"STARLINK-1049","APOAPSIS":"548.181"}];
